NORAD_CAT_ID,OBJECT_NAME,OBJECT_TYPE,EPOCH,MEAN_MOTION,ECCENTRICITY,INCLINATION,RA_OF_ASC_NODE,ARG_OF_PERICENTER,MEAN_ANOMALY,BSTAR,MEAN_MOTION_DOT,MEAN_MOTION_DDOT,TLE_LINE0,TLE_LINE1,TLE_LINE2,SEMIMAJOR_AXIS,PERIOD,APOGEE,PERIGEE,DECAYED
56472.0,STARLINK-5038,PAYLOAD,2024-05-12 20:54:33,14.98208842,0.0002609,70.0024,3.3232,264.0023,96.0839,-0.0025436,-0.00030217,0.0,0 STARLINK-5038,1 56472U 23064AA  24133.87122359 -.00030217  00000-0 -25436-2 0  9996,2 56472  70.0024   3.3232 0002609 264.0023  96.0839 14.98208842 56367,6950.568,96.115,574.246,570.619,0.0
56472.0,STARLINK-5038,PAYLOAD,2024-05-12 22:30:41,14.9823892,0.0002832,70.0034,3.1575,223.3701,136.7236,-0.0012751,-0.00015238,0.0,0 STARLINK-5038,1 56472U 23064AA  24133.93797949 -.00015238  00000-0 -12751-2 0  9998,2 56472  70.0034   3.1575 0002832 223.3701 136.7236 14.98238920 56010,6950.475,96.113,574.308,570.371,0.0
56472.0,STARLINK-5038,PAYLOAD,2024-05-13 00:06:49,14.98289929,0.0002775,70.0038,2.9878,290.9608,69.1254,0.0012634,0.00014998,0.0,0 STARLINK-5038,1 56472U 23064AA  24134.00473391  .00014998  00000-0  12634-2 0  9999,2 56472  70.0038   2.9878 0002775 290.9608  69.1254 14.98289929 56383,6950.317,96.11,574.111,570.253,0.0
56472.0,STARLINK-5038,PAYLOAD,2024-05-13 08:07:30,14.98299655,0.0002999,70.0025,2.1453,272.9154,87.1662,0.0022789,0.00027183,0.0,0 STARLINK-5038,1 56472U 23064AA  24134.33854277  .00027183  00000-0  22789-2 0  9993,2 56472  70.0025   2.1453 0002999 272.9154  87.1662 14.98299655 56070,6950.287,96.109,574.236,570.067,0.0
56472.0,STARLINK-5038,PAYLOAD,2024-05-13 20:56:34,14.98323683,0.0003544,70.0022,0.7975,269.3694,90.7059,0.0021576,0.00025742,0.0,0 STARLINK-5038,1 56472U 23064AA  24134.87262483  .00025742  00000-0  21576-2 0  9996,2 56472  70.0022   0.7975 0003544 269.3694  90.7059 14.98323683 56154,6950.212,96.107,574.541,569.614,0.0
56472.0,STARLINK-5038,PAYLOAD,2024-05-14 00:08:50,14.9832824,0.0003357,70.0012,0.4603,271.185,88.8925,0.0019376,0.00023102,0.0,0 STARLINK-5038,1 56472U 23064AA  24135.00614096  .00023102  00000-0  19376-2 0  9996,2 56472  70.0012   0.4603 0003357 271.1850  88.8925 14.98328240 56531,6950.198,96.107,574.397,569.73,0.0
56472.0,STARLINK-5038,PAYLOAD,2024-05-14 08:09:30,14.9833778,0.0003218,70.002,359.6189,276.2681,83.8112,0.001671,0.00019906,0.0,0 STARLINK-5038,1 56472U 23064AA  24135.33993577  .00019906  00000-0  16710-2 0  9992,2 56472  70.0020 359.6189 0003218 276.2681  83.8112 14.98337780 56220,6950.169,96.107,574.27,569.797,0.0
56472.0,STARLINK-5038,PAYLOAD,2024-05-14 20:58:33,14.98365446,0.0003472,70.0012,358.2722,270.3495,89.7267,0.0014562,0.00017342,0.0,0 STARLINK-5038,1 56472U 23064AA  24135.87399853  .00017342  00000-0  14562-2 0  9993,2 56472  70.0012 358.2722 0003472 270.3495  89.7267 14.98365446 56663,6950.083,96.105,574.361,569.535,0.0
56472.0,STARLINK-5038,PAYLOAD,2024-05-14 22:34:40,14.98378997,0.0003583,70.0013,358.1038,270.7537,89.3211,0.0010873,0.00012921,0.0,0 STARLINK-5038,1 56472U 23064AA  24135.94075008  .00012921  00000-0  10873-2 0  9993,2 56472  70.0013 358.1038 0003583 270.7537  89.3211 14.98378997 56319,6950.041,96.104,574.397,569.416,0.0
56472.0,STARLINK-5038,PAYLOAD,2024-05-15 00:09:56,15.0016422,0.0011128,70.0022,357.9319,271.8014,88.1871,0.054672,0.00729816,0.0,0 STARLINK-5038,1 56472U 23064AA  24136.00690333  .00729816  00000-0  54672-1 0  9997,2 56472  70.0022 357.9319 0011128 271.8014  88.1871 15.00164220 56689,6944.526,95.989,574.119,558.664,0.0
56472.0,STARLINK-5038,PAYLOAD,2024-05-15 14:00:01,14.98338164,0.0003222,70.0018,356.4836,265.7627,319.56,0.0037508,0.00044959,0.0,0 STARLINK-5038,1 56472U 23064AA  24136.58334491  .00044959  00000-0  37508-2 0  9998,2 56472  70.0018 356.4836 0003222 265.7627 319.5600 14.98338164 56766,6950.168,96.106,574.272,569.793,0.0
56472.0,STARLINK-5038,PAYLOAD,2024-05-15 22:00:00,14.98363611,0.0003262,70.0018,355.643,272.3564,310.4718,-0.003918,-0.00046574,0.0,0 STARLINK-5038,1 56472U 23064AA  24136.91667824 -.00046574  00000-0 -39180-2 0  9999,2 56472  70.0018 355.6430 0003262 272.3564 310.4718 14.98363611 56816,6950.089,96.105,574.221,569.687,0.0
56472.0,STARLINK-5038,PAYLOAD,2024-05-16 00:12:47,14.98363192,0.0003184,70.0025,355.4101,268.4165,91.6629,7.2082e-05,7.68e-06,0.0,0 STARLINK-5038,1 56472U 23064AA  24137.00888796  .00000768  00000-0  72082-4 0  9996,2 56472  70.0025 355.4101 0003184 268.4165  91.6629 14.98363192 56838,6950.09,96.105,574.168,569.742,0.0
56472.0,STARLINK-5038,PAYLOAD,2024-05-16 08:13:28,14.98355971,0.0002919,70.0045,354.5659,267.9273,92.1552,-0.00011502,-1.466e-05,0.0,0 STARLINK-5038,1 56472U 23064AA  24137.34268795 -.00001466  00000-0 -11502-3 0  9991,2 56472  70.0045 354.5659 0002919 267.9273  92.1552 14.98355971 56889,6950.113,96.105,574.006,569.949,0.0
56472.0,STARLINK-5038,PAYLOAD,2024-05-16 14:37:59,14.98358934,0.0002923,70.0033,353.8959,273.6207,86.4617,-5.7771e-05,-7.83e-06,0.0,0 STARLINK-5038,1 56472U 23064AA  24137.60972022 -.00000783  00000-0 -57771-4 0  9995,2 56472  70.0033 353.8959 0002923 273.6207  86.4617 14.98358934 56562,6950.103,96.105,574.0,569.937,0.0
56472.0,STARLINK-5038,PAYLOAD,2024-05-16 21:02:32,14.98353039,0.0002755,70.0035,353.2218,270.8905,89.1939,9.3408e-05,1.022e-05,0.0,0 STARLINK-5038,1 56472U 23064AA  24137.87676135  .00001022  00000-0  93408-4 0  9992,2 56472  70.0035 353.2218 0002755 270.8905  89.1939 14.98353039 56606,6950.122,96.106,573.901,570.072,0.0
56472.0,STARLINK-5038,PAYLOAD,2024-05-17 08:15:28,14.9834341,0.0003052,70.0034,352.0447,274.6947,85.3864,-9.4202e-05,-1.217e-05,0.0,0 STARLINK-5038,1 56472U 23064AA  24138.34408083 -.00001217  00000-0 -94202-4 0  9991,2 56472  70.0034 352.0447 0003052 274.6947  85.3864 14.98343410 57030,6950.151,96.106,574.138,569.895,0.0
56472.0,STARLINK-5038,PAYLOAD,2024-05-17 14:40:00,14.98339787,0.0002659,70.0042,351.3718,274.8055,85.28,-0.00099442,-0.00011941,0.0,0 STARLINK-5038,1 56472U 23064AA  24138.61112131 -.00011941  00000-0 -99442-3 0  9992,2 56472  70.0042 351.3718 0002659 274.8055  85.2800 14.98339787 56711,6950.163,96.106,573.876,570.18,0.0
56472.0,STARLINK-5038,PAYLOAD,2024-05-17 21:04:33,14.98330338,0.0003233,70.0019,350.6982,267.9378,92.1411,-0.00020159,-2.498e-05,0.0,0 STARLINK-5038,1 56472U 23064AA  24138.87816695 -.00002498  00000-0 -20159-3 0  9992,2 56472  70.0019 350.6982 0003233 267.9378  92.1411 14.98330338 57113,6950.192,96.107,574.304,569.81,0.0
56472.0,STARLINK-5038,PAYLOAD,2024-05-17 22:40:41,14.98332145,0.0003116,70.0021,350.5297,267.7461,92.3341,-0.00015077,-1.892e-05,0.0,0 STARLINK-5038,1 56472U 23064AA  24138.94492632 -.00001892  00000-0 -15077-3 0  9991,2 56472  70.0021 350.5297 0003116 267.7461  92.3341 14.98332145 56767,6950.186,96.107,574.217,569.886,0.0
56472.0,STARLINK-5038,PAYLOAD,2024-05-18 14:42:01,14.98345096,0.0003148,70.0016,348.8464,268.9148,91.1651,0.00027851,3.233e-05,0.0,0 STARLINK-5038,1 56472U 23064AA  24139.61251835  .00003233  00000-0  27851-3 0  9996,2 56472  70.0016 348.8464 0003148 268.9148  91.1651 14.98345096 56868,6950.146,96.106,574.199,569.823,0.0
56472.0,STARLINK-5038,PAYLOAD,2024-05-18 21:06:33,14.9835956,0.0003235,70.0024,348.1733,267.8225,92.2564,0.0013631,0.00016222,0.0,0 STARLINK-5038,1 56472U 23064AA  24139.87955753  .00016222  00000-0  13631-2 0  9996,2 56472  70.0024 348.1733 0003235 267.8225  92.2564 14.98359560 57261,6950.101,96.105,574.215,569.718,0.0
56472.0,STARLINK-5038,PAYLOAD,2024-05-18 22:42:41,14.98364407,0.0003245,70.0023,348.0049,267.9825,92.0962,0.0014876,0.00017718,0.0,0 STARLINK-5038,1 56472U 23064AA  24139.94631569  .00017718  00000-0  14876-2 0  9993,2 56472  70.0023 348.0049 0003245 267.9825  92.0962 14.98364407 56914,6950.086,96.105,574.207,569.696,0.0
56472.0,STARLINK-5038,PAYLOAD,2024-05-19 00:18:49,14.98367275,0.0003251,70.0023,347.8366,268.019,92.0597,0.0014896,0.00017743,0.0,0 STARLINK-5038,1 56472U 23064AA  24140.01307398  .00017743  00000-0  14896-2 0  9993,2 56472  70.0023 347.8366 0003251 268.0190  92.0597 14.98367275 56928,6950.078,96.105,574.202,569.683,0.0
56472.0,STARLINK-5038,PAYLOAD,2024-05-19 21:08:35,14.98325575,0.0003542,70.0018,345.6487,270.1782,89.8971,0.0002046,2.349e-05,0.0,0 STARLINK-5038,1 56472U 23064AA  24140.88096359  .00002349  00000-0  20460-3 0  9991,2 56472  70.0018 345.6487 0003542 270.1782  89.8971 14.98325575 57418,6950.207,96.107,574.533,569.61,0.0
56472.0,STARLINK-5038,PAYLOAD,2024-05-20 14:46:04,14.98330279,0.0003797,70.0006,343.7968,273.8938,86.1787,0.00093219,0.00011048,0.0,0 STARLINK-5038,1 56472U 23064AA  24141.61532900  .00011048  00000-0  93219-3 0  9998,2 56472  70.0006 343.7968 0003797 273.8938  86.1787 14.98330279 57167,6950.192,96.107,574.696,569.418,0.0
56472.0,STARLINK-5038,PAYLOAD,2024-05-20 21:10:36,14.98343097,0.0003545,70.0012,343.1241,270.8991,89.1762,0.0012368,0.00014701,0.0,0 STARLINK-5038,1 56472U 23064AA  24141.88236650  .00014701  00000-0  12368-2 0  9994,2 56472  70.0012 343.1241 0003545 270.8991  89.1762 14.98343097 57561,6950.152,96.106,574.481,569.554,0.0
56472.0,STARLINK-5038,PAYLOAD,2024-05-21 14:48:05,14.98338632,0.0002957,70.0027,341.274,259.6486,100.434,0.00033902,3.955e-05,0.0,0 STARLINK-5038,1 56472U 23064AA  24142.61672489  .00003955  00000-0  33902-3 0  9997,2 56472  70.0027 341.2740 0002957 259.6486 100.4340 14.98338632 57311,6950.166,96.106,574.086,569.976,0.0
56472.0,STARLINK-5038,PAYLOAD,2024-05-21 21:12:37,14.9833941,0.000304,70.0024,340.6007,260.0767,100.0049,0.00036121,4.221e-05,0.0,0 STARLINK-5038,1 56472U 23064AA  24142.88376429  .00004221  00000-0  36121-3 0  9994,2 56472  70.0024 340.6007 0003040 260.0767 100.0049 14.98339410 57710,6950.164,96.106,574.142,569.916,0.0
56472.0,STARLINK-5038,PAYLOAD,2024-05-21 22:48:45,14.98338666,0.0003074,70.0022,340.4318,262.6714,97.4096,0.00031888,3.715e-05,0.0,0 STARLINK-5038,1 56472U 23064AA  24142.95052439  .00003715  00000-0  31888-3 0  9996,2 56472  70.0022 340.4318 0003074 262.6714  97.4096 14.98338666 57362,6950.166,96.106,574.168,569.895,0.0
